[{"OBJECT_NAME":"STARLINK-36886","OBJECT_ID":"2026-050J","EPOCH":"2026-04-11T20:00:01.000224","MEAN_MOTION":15.68275945,"ECCENTRICITY":8.49e-5,"INCLINATION":53.1593,"RA_OF_ASC_NODE":115.8021,"ARG_OF_PERICENTER":87.8925,"MEAN_ANOMALY":337.5385,"EPHEMERIS_TYPE":0,"CLASSIFICATION_TYPE":"U","NORAD_CAT_ID":68175,"ELEMENT_SET_NO":999,"REV_AT_EPOCH":577,"BSTAR":-0.018773,"MEAN_MOTION_DOT":-0.01901678,"MEAN_MOTION_DDOT":0},{"OBJECT_NAME":"STARLINK-36905","OBJECT_ID":"2026-050K","EPOCH":"2026-04-11T20:00:01.000224","MEAN_MOTION":15.70564542,"ECCENTRICITY":0.0001015,"INCLINATION":53.1594,"RA_OF_ASC_NODE":115.7466,"ARG_OF_PERICENTER":76.7988,"MEAN_ANOMALY":15.2912,"EPHEMERIS_TYPE":0,"CLASSIFICATION_TYPE":"U","NORAD_CAT_ID":68176,"ELEMENT_SET_NO":999,"REV_AT_EPOCH":577,"BSTAR":-0.017312,"MEAN_MOTION_DOT":-0.01926776,"MEAN_MOTION_DDOT":0},{"OBJECT_NAME":"STARLINK-36668","OBJECT_ID":"2026-050L","EPOCH":"2026-04-11T20:00:01.000224","MEAN_MOTION":15.50330064,"ECCENTRICITY":7.55e-5,"INCLINATION":53.16,"RA_OF_ASC_NODE":116.4489,"ARG_OF_PERICENTER":84.0123,"MEAN_ANOMALY":22.1676,"EPHEMERIS_TYPE":0,"CLASSIFICATION_TYPE":"U","NORAD_CAT_ID":68177,"ELEMENT_SET_NO":999,"REV_AT_EPOCH":577,"BSTAR":-0.026878,"MEAN_MOTION_DOT":-0.01390835,"MEAN_MOTION_DDOT":0},{"OBJECT_NAME":"STARLINK-36677","OBJECT_ID":"2026-050M","EPOCH":"2026-04-11T20:00:01.000224","MEAN_MOTION":15.715653,"ECCENTRICITY":0.0001003,"INCLINATION":53.1591,"RA_OF_ASC_NODE":115.7118,"ARG_OF_PERICENTER":80.6925,"MEAN_ANOMALY":28.3677,"EPHEMERIS_TYPE":0,"CLASSIFICATION_TYPE":"U","NORAD_CAT_ID":68178,"ELEMENT_SET_NO":999,"REV_AT_EPOCH":577,"BSTAR":-0.016609,"MEAN_MOTION_DOT":-0.01928494,"MEAN_MOTION_DDOT":0},{"OBJECT_NAME":"STARLINK-37052","OBJECT_ID":"2026-050N","EPOCH":"2026-04-11T20:00:01.000224","MEAN_MOTION":15.64097847,"ECCENTRICITY":6.69e-5,"INCLINATION":53.1598,"RA_OF_ASC_NODE":115.8725,"ARG_OF_PERICENTER":96.8211,"MEAN_ANOMALY":293.2281,"EPHEMERIS_TYPE":0,"CLASSIFICATION_TYPE":"U","NORAD_CAT_ID":68179,"ELEMENT_SET_NO":999,"REV_AT_EPOCH":577,"BSTAR":-0.021874,"MEAN_MOTION_DOT":-0.01873204,"MEAN_MOTION_DDOT":0},{"OBJECT_NAME":"STARLINK-37035","OBJECT_ID":"2026-050P","EPOCH":"2026-04-11T20:00:01.000224","MEAN_MOTION":15.64400682,"ECCENTRICITY":6.8e-5,"INCLINATION":53.1599,"RA_OF_ASC_NODE":115.855,"ARG_OF_PERICENTER":94.494,"MEAN_ANOMALY":304.1254,"EPHEMERIS_TYPE":0,"CLASSIFICATION_TYPE":"U","NORAD_CAT_ID":68180,"ELEMENT_SET_NO":999,"REV_AT_EPOCH":577,"BSTAR":-0.021646,"MEAN_MOTION_DOT":-0.0187588,"MEAN_MOTION_DDOT":0},{"OBJECT_NAME":"STARLINK-37032","OBJECT_ID":"2026-050Q","EPOCH":"2026-04-11T20:00:01.000224","MEAN_MOTION":15.64836053,"ECCENTRICITY":6.55e-5,"INCLINATION":53.1598,"RA_OF_ASC_NODE":115.8344,"ARG_OF_PERICENTER":88.9317,"MEAN_ANOMALY":320.0613,"EPHEMERIS_TYPE":0,"CLASSIFICATION_TYPE":"U","NORAD_CAT_ID":68181,"ELEMENT_SET_NO":999,"REV_AT_EPOCH":577,"BSTAR":-0.021203,"MEAN_MOTION_DOT":-0.01870563,"MEAN_MOTION_DDOT":0},{"OBJECT_NAME":"STARLINK-37082","OBJECT_ID":"2026-050R","EPOCH":"2026-04-11T20:00:01.000224","MEAN_MOTION":15.60652781,"ECCENTRICITY":8.15e-5,"INCLINATION":53.1604,"RA_OF_ASC_NODE":115.9581,"ARG_OF_PERICENTER":95.9557,"MEAN_ANOMALY":252.205,"EPHEMERIS_TYPE":0,"CLASSIFICATION_TYPE":"U","NORAD_CAT_ID":68182,"ELEMENT_SET_NO":999,"REV_AT_EPOCH":577,"BSTAR":-0.025112,"MEAN_MOTION_DOT":-0.01877285,"MEAN_MOTION_DDOT":0},{"OBJECT_NAME":"STARLINK-37102","OBJECT_ID":"2026-050S","EPOCH":"2026-04-11T20:00:01.000224","MEAN_MOTION":15.6275943,"ECCENTRICITY":6.67e-5,"INCLINATION":53.1597,"RA_OF_ASC_NODE":115.8781,"ARG_OF_PERICENTER":97.5869,"MEAN_ANOMALY":289.5451,"EPHEMERIS_TYPE":0,"CLASSIFICATION_TYPE":"U","NORAD_CAT_ID":68183,"ELEMENT_SET_NO":999,"REV_AT_EPOCH":577,"BSTAR":-0.023024,"MEAN_MOTION_DOT":-0.01870001,"MEAN_MOTION_DDOT":0},{"OBJECT_NAME":"STARLINK-36964","OBJECT_ID":"2026-050T","EPOCH":"2026-04-11T20:00:01.000224","MEAN_MOTION":15.65934208,"ECCENTRICITY":8.9e-5,"INCLINATION":53.1596,"RA_OF_ASC_NODE":115.7795,"ARG_OF_PERICENTER":87.2807,"MEAN_ANOMALY":348.9224,"EPHEMERIS_TYPE":0,"CLASSIFICATION_TYPE":"U","NORAD_CAT_ID":68184,"ELEMENT_SET_NO":999,"REV_AT_EPOCH":577,"BSTAR":-0.020654,"MEAN_MOTION_DOT":-0.01900906,"MEAN_MOTION_DDOT":0},{"OBJECT_NAME":"STARLINK-37061","OBJECT_ID":"2026-050U","EPOCH":"2026-04-11T20:00:01.000224","MEAN_MOTION":15.64475619,"ECCENTRICITY":6.97e-5,"INCLINATION":53.1599,"RA_OF_ASC_NODE":115.809,"ARG_OF_PERICENTER":91.5545,"MEAN_ANOMALY":329.4789,"EPHEMERIS_TYPE":0,"CLASSIFICATION_TYPE":"U","NORAD_CAT_ID":68185,"ELEMENT_SET_NO":999,"REV_AT_EPOCH":577,"BSTAR":-0.021578,"MEAN_MOTION_DOT":-0.01875637,"MEAN_MOTION_DDOT":0},{"OBJECT_NAME":"STARLINK-37079","OBJECT_ID":"2026-050V","EPOCH":"2026-04-11T20:00:01.000224","MEAN_MOTION":15.49307337,"ECCENTRICITY":0.0001893,"INCLINATION":53.1602,"RA_OF_ASC_NODE":116.6291,"ARG_OF_PERICENTER":63.2001,"MEAN_ANOMALY":313.985,"EPHEMERIS_TYPE":0,"CLASSIFICATION_TYPE":"U","NORAD_CAT_ID":68186,"ELEMENT_SET_NO":999,"REV_AT_EPOCH":577,"BSTAR":0.001169,"MEAN_MOTION_DOT":0.00065107,"MEAN_MOTION_DDOT":0},{"OBJECT_NAME":"STARLINK-37006","OBJECT_ID":"2026-050W","EPOCH":"2026-04-11T20:00:01.000224","MEAN_MOTION":15.64742254,"ECCENTRICITY":9.4e-5,"INCLINATION":53.1598,"RA_OF_ASC_NODE":115.7852,"ARG_OF_PERICENTER":86.9471,"MEAN_ANOMALY":346.1935,"EPHEMERIS_TYPE":0,"CLASSIFICATION_TYPE":"U","NORAD_CAT_ID":68187,"ELEMENT_SET_NO":999,"REV_AT_EPOCH":577,"BSTAR":-0.021641,"MEAN_MOTION_DOT":-0.01898567,"MEAN_MOTION_DDOT":0},{"OBJECT_NAME":"STARLINK-36305","OBJECT_ID":"2026-050Y","EPOCH":"2026-04-11T20:00:01.000224","MEAN_MOTION":15.65350095,"ECCENTRICITY":0.0001016,"INCLINATION":53.1595,"RA_OF_ASC_NODE":115.7513,"ARG_OF_PERICENTER":74.1539,"MEAN_ANOMALY":15.761,"EPHEMERIS_TYPE":0,"CLASSIFICATION_TYPE":"U","NORAD_CAT_ID":68189,"ELEMENT_SET_NO":999,"REV_AT_EPOCH":566,"BSTAR":-0.021163,"MEAN_MOTION_DOT":-0.01902202,"MEAN_MOTION_DDOT":0},{"OBJECT_NAME":"STARLINK-37071","OBJECT_ID":"2026-050Z","EPOCH":"2026-04-11T20:00:01.000224","MEAN_MOTION":15.67900213,"ECCENTRICITY":0.0001068,"INCLINATION":53.1592,"RA_OF_ASC_NODE":115.6701,"ARG_OF_PERICENTER":83.0621,"MEAN_ANOMALY":46.5448,"EPHEMERIS_TYPE":0,"CLASSIFICATION_TYPE":"U","NORAD_CAT_ID":68190,"ELEMENT_SET_NO":999,"REV_AT_EPOCH":577,"BSTAR":-0.019161,"MEAN_MOTION_DOT":-0.01910209,"MEAN_MOTION_DDOT":0},{"OBJECT_NAME":"STARLINK-37091","OBJECT_ID":"2026-050AA","EPOCH":"2026-04-11T20:00:01.000224","MEAN_MOTION":15.68145301,"ECCENTRICITY":0.0001084,"INCLINATION":53.1593,"RA_OF_ASC_NODE":115.6555,"ARG_OF_PERICENTER":85.5256,"MEAN_ANOMALY":51.0508,"EPHEMERIS_TYPE":0,"CLASSIFICATION_TYPE":"U","NORAD_CAT_ID":68191,"ELEMENT_SET_NO":999,"REV_AT_EPOCH":577,"BSTAR":-0.018985,"MEAN_MOTION_DOT":-0.01911723,"MEAN_MOTION_DDOT":0},{"OBJECT_NAME":"STARLINK-37098","OBJECT_ID":"2026-050AB","EPOCH":"2026-04-11T20:00:01.000224","MEAN_MOTION":15.65938825,"ECCENTRICITY":0.0001105,"INCLINATION":53.1594,"RA_OF_ASC_NODE":115.6998,"ARG_OF_PERICENTER":80.7937,"MEAN_ANOMALY":33.8669,"EPHEMERIS_TYPE":0,"CLASSIFICATION_TYPE":"U","NORAD_CAT_ID":68192,"ELEMENT_SET_NO":999,"REV_AT_EPOCH":577,"BSTAR":-0.020735,"MEAN_MOTION_DOT":-0.01908034,"MEAN_MOTION_DDOT":0}]
