STARLINK-36886          
1 68175U 26050J   26101.83334491 -.01901678  00000+0 -18773-1 0  9995
2 68175  53.1593 115.8021 0000849  87.8925 337.5385 15.68275945  5778
STARLINK-36905          
1 68176U 26050K   26101.83334491 -.01926776  00000+0 -17312-1 0  9990
2 68176  53.1594 115.7466 0001015  76.7988  15.2912 15.70564542  5777
STARLINK-36668          
1 68177U 26050L   26101.83334491 -.01390835  00000+0 -26878-1 0  9999
2 68177  53.1600 116.4489 0000755  84.0123  22.1676 15.50330064  5774
STARLINK-36677          
1 68178U 26050M   26101.83334491 -.01928494  00000+0 -16609-1 0  9999
2 68178  53.1591 115.7118 0001003  80.6925  28.3677 15.71565300  5779
STARLINK-37052          
1 68179U 26050N   26101.83334491 -.01873204  00000+0 -21874-1 0  9998
2 68179  53.1598 115.8725 0000669  96.8211 293.2281 15.64097847  5778
STARLINK-37035          
1 68180U 26050P   26101.83334491 -.01875880  00000+0 -21646-1 0  9999
2 68180  53.1599 115.8550 0000680  94.4940 304.1254 15.64400682  5770
STARLINK-37032          
1 68181U 26050Q   26101.83334491 -.01870563  00000+0 -21203-1 0  9992
2 68181  53.1598 115.8344 0000655  88.9317 320.0613 15.64836053  5770
STARLINK-37082          
1 68182U 26050R   26101.83334491 -.01877285  00000+0 -25112-1 0  9994
2 68182  53.1604 115.9581 0000815  95.9557 252.2050 15.60652781  5776
STARLINK-37102          
1 68183U 26050S   26101.83334491 -.01870001  00000+0 -23024-1 0  9994
2 68183  53.1597 115.8781 0000667  97.5869 289.5451 15.62759430  5777
STARLINK-36964          
1 68184U 26050T   26101.83334491 -.01900906  00000+0 -20654-1 0  9999
2 68184  53.1596 115.7795 0000890  87.2807 348.9224 15.65934208  5776
STARLINK-37061          
1 68185U 26050U   26101.83334491 -.01875637  00000+0 -21578-1 0  9998
2 68185  53.1599 115.8090 0000697  91.5545 329.4789 15.64475619  5776
STARLINK-37079          
1 68186U 26050V   26101.83334491  .00065107  00000+0  11690-2 0  9994
2 68186  53.1602 116.6291 0001893  63.2001 313.9850 15.49307337  5777
STARLINK-37006          
1 68187U 26050W   26101.83334491 -.01898567  00000+0 -21641-1 0  9998
2 68187  53.1598 115.7852 0000940  86.9471 346.1935 15.64742254  5770
STARLINK-36305          
1 68189U 26050Y   26101.83334491 -.01902202  00000+0 -21163-1 0  9991
2 68189  53.1595 115.7513 0001016  74.1539  15.7610 15.65350095  5668
STARLINK-37071          
1 68190U 26050Z   26101.83334491 -.01910209  00000+0 -19161-1 0  9994
2 68190  53.1592 115.6701 0001068  83.0621  46.5448 15.67900213  5771
STARLINK-37091          
1 68191U 26050AA  26101.83334491 -.01911723  00000+0 -18985-1 0  9990
2 68191  53.1593 115.6555 0001084  85.5256  51.0508 15.68145301  5777
STARLINK-37098          
1 68192U 26050AB  26101.83334491 -.01908034  00000+0 -20735-1 0  9998
2 68192  53.1594 115.6998 0001105  80.7937  33.8669 15.65938825  5771
